start=new Date('2021-11-21T00:00:00.000Z').valueOf();
sats=[{"FILE":"3220049","APOAPSIS":"551.106","ELEMENT_SET_NO":"999","CENTER_NAME":"EARTH","INCLINATION":"53.0016","MEAN_MOTION_DDOT":"0.0000000000000","BSTAR":"0.00011637000000","SITE":"AFETR","TLE_LINE1":"1 45687U 20035AG  21324.31993145  .00001416  00000-0  11637-3 0  9990","MEAN_ELEMENT_THEORY":"SGP4","GP_ID":"190139401","DECAY_DATE":null,"CLASSIFICATION_TYPE":"U","PERIOD":"95.644","EPHEMERIS_TYPE":"0","OBJECT_NAME":"STARLINK-1406","ARG_OF_PERICENTER":"62.5191","MEAN_MOTION_DOT":"0.00001416","SEMIMAJOR_AXIS":"6927.852","MEAN_MOTION":"15.05583619","MEAN_ANOMALY":"297.6001","REF_FRAME":"TEME","REV_AT_EPOCH":"8229","OBJECT_ID":"2020-035AG","EPOCH":"2021-11-20T07:40:42.077280","TLE_LINE2":"2 45687  53.0016 256.2898 0002005  62.5191 297.6001 15.05583619 82297","LAUNCH_DATE":"2020-06-04","PERIAPSIS":"548.328","COUNTRY_CODE":"US","RA_OF_ASC_NODE":"256.2898","RCS_SIZE":"LARGE","OBJECT_TYPE":"PAYLOAD","NORAD_CAT_ID":"45687","ECCENTRICITY":"0.00020050","TIME_SYSTEM":"UTC"},{"LAUNCH_DATE":"2020-06-04","PERIAPSIS":"545.871","COUNTRY_CODE":"US","EPOCH":"2021-11-20T08:42:46.826208","TLE_LINE2":"2 45688  53.0539 266.0865 0001983  58.7599 301.3584 15.06390029 82183","REV_AT_EPOCH":"8218","OBJECT_ID":"2020-035AH","MEAN_ANOMALY":"301.3584","REF_FRAME":"TEME","TIME_SYSTEM":"UTC","NORAD_CAT_ID":"45688","ECCENTRICITY":"0.00019830","OBJECT_TYPE":"PAYLOAD","RA_OF_ASC_NODE":"266.0865","RCS_SIZE":"LARGE","MEAN_ELEMENT_THEORY":"SGP4","BSTAR":"0.00004476000000","SITE":"AFETR","TLE_LINE1":"1 45688U 20035AH  21324.36304197  .00000385  00000-0  44760-4 0  9997","MEAN_MOTION_DDOT":"0.0000000000000","FILE":"3220049","APOAPSIS":"548.617","ELEMENT_SET_NO":"999","CENTER_NAME":"EARTH","INCLINATION":"53.0539","MEAN_MOTION_DOT":"0.00000385","SEMIMAJOR_AXIS":"6925.379","MEAN_MOTION":"15.06390029","EPHEMERIS_TYPE":"0","OBJECT_NAME":"STARLINK-1408","ARG_OF_PERICENTER":"58.7599","CLASSIFICATION_TYPE":"U","PERIOD":"95.593","GP_ID":"190140652","DECAY_DATE":null},{"ARG_OF_PERICENTER":"64.8419","OBJECT_NAME":"STARLINK-1413","EPHEMERIS_TYPE":"0","MEAN_MOTION":"15.06386727","SEMIMAJOR_AXIS":"6925.389","MEAN_MOTION_DOT":"-0.00000341","DECAY_DATE":null,"GP_ID":"190140403","PERIOD":"95.593","CLASSIFICATION_TYPE":"U","TLE_LINE1":"1 45689U 20035AJ  21324.32249496 -.00000341  00000-0 -40158-5 0  9996","SITE":"AFETR","BSTAR":"-0.00000401580000","MEAN_ELEMENT_THEORY":"SGP4","INCLINATION":"53.0533","CENTER_NAME":"EARTH","ELEMENT_SET_NO":"999","FILE":"3220049","APOAPSIS":"548.570","MEAN_MOTION_DDOT":"0.0000000000000","ECCENTRICITY":"0.00019000","NORAD_CAT_ID":"45689","TIME_SYSTEM":"UTC","RCS_SIZE":"LARGE","RA_OF_ASC_NODE":"266.2649","OBJECT_TYPE":"PAYLOAD","TLE_LINE2":"2 45689  53.0533 266.2649 0001900  64.8419 295.2767 15.06386727 82092","EPOCH":"2021-11-20T07:44:23.564544","COUNTRY_CODE":"US","PERIAPSIS":"545.938","LAUNCH_DATE":"2020-06-04","REF_FRAME":"TEME","MEAN_ANOMALY":"295.2767","OBJECT_ID":"2020-035AJ","REV_AT_EPOCH":"8209"},{"MEAN_ELEMENT_THEORY":"SGP4","TLE_LINE1":"1 45690U 20035AK  21324.32179397  .00000005  00000-0  19533-4 0  9997","SITE":"AFETR","BSTAR":"0.00001953300000","MEAN_MOTION_DDOT":"0.0000000000000","INCLINATION":"53.0022","ELEMENT_SET_NO":"999","CENTER_NAME":"EARTH","FILE":"3220049","APOAPSIS":"550.983","MEAN_MOTION":"15.05576028","SEMIMAJOR_AXIS":"6927.875","MEAN_MOTION_DOT":"0.00000005","ARG_OF_PERICENTER":"66.5173","OBJECT_NAME":"STARLINK-1414","EPHEMERIS_TYPE":"0","PERIOD":"95.644","CLASSIFICATION_TYPE":"U","DECAY_DATE":null,"GP_ID":"190139651","COUNTRY_CODE":"US","PERIAPSIS":"548.497","LAUNCH_DATE":"2020-06-04","TLE_LINE2":"2 45690  53.0022 266.2793 0001794  66.5173 293.6004 15.05576028 82151","EPOCH":"2021-11-20T07:43:22.999008","OBJECT_ID":"2020-035AK","REV_AT_EPOCH":"8215","REF_FRAME":"TEME","MEAN_ANOMALY":"293.6004","TIME_SYSTEM":"UTC","ECCENTRICITY":"0.00017940","NORAD_CAT_ID":"45690","OBJECT_TYPE":"PAYLOAD","RCS_SIZE":"LARGE","RA_OF_ASC_NODE":"266.2793"},{"PERIOD":"95.593","CLASSIFICATION_TYPE":"U","DECAY_DATE":null,"GP_ID":"190147470","MEAN_MOTION":"15.06388731","SEMIMAJOR_AXIS":"6925.383","MEAN_MOTION_DOT":"-0.00000678","ARG_OF_PERICENTER":"55.7690","OBJECT_NAME":"STARLINK-1415","EPHEMERIS_TYPE":"0","MEAN_MOTION_DDOT":"0.0000000000000","INCLINATION":"53.0548","ELEMENT_SET_NO":"999","CENTER_NAME":"EARTH","APOAPSIS":"548.340","FILE":"3220204","MEAN_ELEMENT_THEORY":"SGP4","TLE_LINE1":"1 45691U 20035AL  21324.57313381 -.00000678  00000-0 -26607-4 0  9996","SITE":"AFETR","BSTAR":"-0.00002660700000","OBJECT_TYPE":"PAYLOAD","RCS_SIZE":"LARGE","RA_OF_ASC_NODE":"265.1583","TIME_SYSTEM":"UTC","ECCENTRICITY":"0.00015770","NORAD_CAT_ID":"45691","OBJECT_ID":"2020-035AL","REV_AT_EPOCH":"8221","REF_FRAME":"TEME","MEAN_ANOMALY":"304.3448","COUNTRY_CODE":"US","PERIAPSIS":"546.156","LAUNCH_DATE":"2020-06-04","TLE_LINE2":"2 45691  53.0548 265.1583 0001577  55.7690 304.3448 15.06388731 82215","EPOCH":"2021-11-20T13:45:18.761184"},{"MEAN_MOTION_DDOT":"0.0000000000000","INCLINATION":"53.0547","ELEMENT_SET_NO":"999","CENTER_NAME":"EARTH","APOAPSIS":"548.604","FILE":"3220049","MEAN_ELEMENT_THEORY":"SGP4","TLE_LINE1":"1 45692U 20035AM  21324.23403906 -.00000259  00000-0  15294-5 0  9998","SITE":"AFETR","BSTAR":"0.00000152940000","PERIOD":"95.592","CLASSIFICATION_TYPE":"U","DECAY_DATE":null,"GP_ID":"190140153","MEAN_MOTION":"15.06394737","SEMIMAJOR_AXIS":"6925.365","MEAN_MOTION_DOT":"-0.00000259","ARG_OF_PERICENTER":"63.9790","OBJECT_NAME":"STARLINK-1416","EPHEMERIS_TYPE":"0","OBJECT_ID":"2020-035AM","REV_AT_EPOCH":"8216","REF_FRAME":"TEME","MEAN_ANOMALY":"296.1403","COUNTRY_CODE":"US","PERIAPSIS":"545.855","LAUNCH_DATE":"2020-06-04","TLE_LINE2":"2 45692  53.0547 266.6788 0001985  63.9790 296.1403 15.06394737 82169","EPOCH":"2021-11-20T05:37:00.974784","OBJECT_TYPE":"PAYLOAD","RCS_SIZE":"LARGE","RA_OF_ASC_NODE":"266.6788","TIME_SYSTEM":"UTC","ECCENTRICITY":"0.00019850","NORAD_CAT_ID":"45692"},{"MEAN_MOTION_DDOT":"0.0000000000000","APOAPSIS":"548.674","FILE":"3220049","CENTER_NAME":"EARTH","ELEMENT_SET_NO":"999","INCLINATION":"53.0545","MEAN_ELEMENT_THEORY":"SGP4","BSTAR":"-0.00030354000000","SITE":"AFETR","TLE_LINE1":"1 45693U 20035AN  21324.31879130 -.00004804  00000-0 -30354-3 0  9997","CLASSIFICATION_TYPE":"U","PERIOD":"95.590","GP_ID":"190140903","DECAY_DATE":null,"MEAN_MOTION_DOT":"-0.00004804","SEMIMAJOR_AXIS":"6925.267","MEAN_MOTION":"15.06426645","EPHEMERIS_TYPE":"0","OBJECT_NAME":"STARLINK-1417","ARG_OF_PERICENTER":"82.2898","REV_AT_EPOCH":"8217","OBJECT_ID":"2020-035AN","MEAN_ANOMALY":"277.8343","REF_FRAME":"TEME","LAUNCH_DATE":"2020-06-04","PERIAPSIS":"545.590","COUNTRY_CODE":"US","EPOCH":"2021-11-20T07:39:03.568320","TLE_LINE2":"2 45693  53.0545 266.2942 0002227  82.2898 277.8343 15.06426645 82173","OBJECT_TYPE":"PAYLOAD","RA_OF_ASC_NODE":"266.2942","RCS_SIZE":"LARGE","TIME_SYSTEM":"UTC","NORAD_CAT_ID":"45693","ECCENTRICITY":"0.00022270"},{"MEAN_ANOMALY":"290.9987","REF_FRAME":"TEME","OBJECT_ID":"2020-035AP","REV_AT_EPOCH":"8178","TLE_LINE2":"2 45694  53.0539 266.2541 0001758  69.1190 290.9987 15.06402843 81789","EPOCH":"2021-11-20T07:49:41.545920","PERIAPSIS":"545.987","COUNTRY_CODE":"US","LAUNCH_DATE":"2020-06-04","RCS_SIZE":"LARGE","RA_OF_ASC_NODE":"266.2541","OBJECT_TYPE":"PAYLOAD","ECCENTRICITY":"0.00017580","NORAD_CAT_ID":"45694","TIME_SYSTEM":"UTC","INCLINATION":"53.0539","APOAPSIS":"548.422","FILE":"3220152","CENTER_NAME":"EARTH","ELEMENT_SET_NO":"999","MEAN_MOTION_DDOT":"0.0000000000000","SITE":"AFETR","TLE_LINE1":"1 45694U 20035AP  21324.32617530  .00000078  00000-0  24139-4 0  9995","BSTAR":"0.00002413900000","MEAN_ELEMENT_THEORY":"SGP4","DECAY_DATE":null,"GP_ID":"190146252","PERIOD":"95.592","CLASSIFICATION_TYPE":"U","OBJECT_NAME":"STARLINK-1419","ARG_OF_PERICENTER":"69.1190","EPHEMERIS_TYPE":"0","MEAN_MOTION":"15.06402843","MEAN_MOTION_DOT":"0.00000078","SEMIMAJOR_AXIS":"6925.340"},{"OBJECT_TYPE":"PAYLOAD","RCS_SIZE":"LARGE","RA_OF_ASC_NODE":"244.1934","TIME_SYSTEM":"UTC","ECCENTRICITY":"0.00020230","NORAD_CAT_ID":"45695","OBJECT_ID":"2020-035AQ","REV_AT_EPOCH":"8212","REF_FRAME":"TEME","MEAN_ANOMALY":"292.0920","COUNTRY_CODE":"US","PERIAPSIS":"545.850","LAUNCH_DATE":"2020-06-04","TLE_LINE2":"2 45695  53.0535 244.1934 0002023  68.0284 292.0920 15.06387688 82123","EPOCH":"2021-11-20T18:50:31.096896","PERIOD":"95.593","CLASSIFICATION_TYPE":"U","DECAY_DATE":null,"GP_ID":"190146269","MEAN_MOTION":"15.06387688","SEMIMAJOR_AXIS":"6925.386","MEAN_MOTION_DOT":"-0.00000582","ARG_OF_PERICENTER":"68.0284","OBJECT_NAME":"STARLINK-1420","EPHEMERIS_TYPE":"0","MEAN_MOTION_DDOT":"0.0000000000000","INCLINATION":"53.0535","ELEMENT_SET_NO":"999","CENTER_NAME":"EARTH","FILE":"3220158","APOAPSIS":"548.652","MEAN_ELEMENT_THEORY":"SGP4","TLE_LINE1":"1 45695U 20035AQ  21324.78508214 -.00000582  00000-0 -20138-4 0  9991","SITE":"AFETR","BSTAR":"-0.00002013800000"},{"MEAN_MOTION_DDOT":"0.0000000000000","CENTER_NAME":"EARTH","ELEMENT_SET_NO":"999","APOAPSIS":"548.596","FILE":"3220049","INCLINATION":"53.0542","MEAN_ELEMENT_THEORY":"SGP4","BSTAR":"0.00001545500000","TLE_LINE1":"1 45696U 20035AR  21324.32986721 -.00000052  00000-0  15455-4 0  9992","SITE":"AFETR","CLASSIFICATION_TYPE":"U","PERIOD":"95.593","GP_ID":"190140653","DECAY_DATE":null,"SEMIMAJOR_AXIS":"6925.380","MEAN_MOTION_DOT":"-0.00000052","MEAN_MOTION":"15.06389667","EPHEMERIS_TYPE":"0","ARG_OF_PERICENTER":"47.1241","OBJECT_NAME":"STARLINK-1422","REV_AT_EPOCH":"8217","OBJECT_ID":"2020-035AR","REF_FRAME":"TEME","MEAN_ANOMALY":"312.9911","LAUNCH_DATE":"2020-06-04","COUNTRY_CODE":"US","PERIAPSIS":"545.894","EPOCH":"2021-11-20T07:55:00.526944","TLE_LINE2":"2 45696  53.0542 266.2387 0001951  47.1241 312.9911 15.06389667 82175","OBJECT_TYPE":"PAYLOAD","RA_OF_ASC_NODE":"266.2387","RCS_SIZE":"LARGE","TIME_SYSTEM":"UTC","NORAD_CAT_ID":"45696","ECCENTRICITY":"0.00019510"}];
